start=new Date('2022-09-30T00:00:00.000Z').valueOf();
sats=[{"DECAY_DATE":null,"RCS_SIZE":"LARGE","GP_ID":"213813219","TLE_LINE1":"1 50832U 22001AF  22272.80746747  .00002644  00000-0  18408-3 0  9991","TLE_LINE2":"2 50832  53.2170  61.4915 0001645  69.1543 290.9625 15.08851454 41771","MEAN_ANOMALY":"290.9625","OBJECT_ID":"2022-001AF","MEAN_MOTION":"15.08851454","PERIOD":"95.437","SITE":"AFETR","MEAN_MOTION_DDOT":"0.0000000000000","OBJECT_NAME":"STARLINK-3328","ELEMENT_SET_NO":"999","BSTAR":"0.00018408000000","ECCENTRICITY":"0.00016450","ARG_OF_PERICENTER":"69.1543","FILE":"3587066","NORAD_CAT_ID":"50832","COUNTRY_CODE":"US","MEAN_ELEMENT_THEORY":"SGP4","SEMIMAJOR_AXIS":"6917.845","INCLINATION":"53.2170","EPHEMERIS_TYPE":"0","REV_AT_EPOCH":"4177","MEAN_MOTION_DOT":"0.00002644","TIME_SYSTEM":"UTC","PERIAPSIS":"538.572","REF_FRAME":"TEME","CENTER_NAME":"EARTH","APOAPSIS":"540.848","EPOCH":"2022-09-29T19:22:45.189408","CLASSIFICATION_TYPE":"U","RA_OF_ASC_NODE":"61.4915","OBJECT_TYPE":"PAYLOAD","LAUNCH_DATE":"2022-01-06"},{"RCS_SIZE":"LARGE","DECAY_DATE":null,"MEAN_ANOMALY":"175.0328","TLE_LINE1":"1 50833U 22001AG  22272.82312353 -.00000843  00000-0 -34868-4 0  9996","GP_ID":"213838215","TLE_LINE2":"2 50833  53.2187  51.4091 0001972 185.0644 175.0328 15.08820467 40667","OBJECT_ID":"2022-001AG","BSTAR":"-0.00003486800000","MEAN_MOTION":"15.08820467","PERIOD":"95.439","SITE":"AFETR","OBJECT_NAME":"STARLINK-3316","MEAN_MOTION_DDOT":"0.0000000000000","ELEMENT_SET_NO":"999","FILE":"3587117","ECCENTRICITY":"0.00019720","ARG_OF_PERICENTER":"185.0644","MEAN_ELEMENT_THEORY":"SGP4","SEMIMAJOR_AXIS":"6917.940","INCLINATION":"53.2187","NORAD_CAT_ID":"50833","COUNTRY_CODE":"US","PERIAPSIS":"538.441","REF_FRAME":"TEME","CENTER_NAME":"EARTH","APOAPSIS":"541.169","EPHEMERIS_TYPE":"0","MEAN_MOTION_DOT":"-0.00000843","REV_AT_EPOCH":"4066","TIME_SYSTEM":"UTC","OBJECT_TYPE":"PAYLOAD","LAUNCH_DATE":"2022-01-06","CLASSIFICATION_TYPE":"U","EPOCH":"2022-09-29T19:45:17.872992","RA_OF_ASC_NODE":"51.4091"},{"PERIAPSIS":"538.355","REF_FRAME":"TEME","CENTER_NAME":"EARTH","APOAPSIS":"541.155","EPHEMERIS_TYPE":"0","MEAN_MOTION_DOT":"0.00000188","REV_AT_EPOCH":"4046","TIME_SYSTEM":"UTC","OBJECT_TYPE":"PAYLOAD","LAUNCH_DATE":"2022-01-06","CLASSIFICATION_TYPE":"U","EPOCH":"2022-09-29T11:09:56.471616","RA_OF_ASC_NODE":"63.0267","FILE":"3586894","ECCENTRICITY":"0.00020240","ARG_OF_PERICENTER":"60.3059","MEAN_ELEMENT_THEORY":"SGP4","SEMIMAJOR_AXIS":"6917.890","INCLINATION":"53.2167","NORAD_CAT_ID":"50834","COUNTRY_CODE":"US","OBJECT_ID":"2022-001AH","BSTAR":"0.00002994300000","MEAN_MOTION":"15.08836844","PERIOD":"95.438","SITE":"AFETR","OBJECT_NAME":"STARLINK-3331","MEAN_MOTION_DDOT":"0.0000000000000","ELEMENT_SET_NO":"999","RCS_SIZE":"LARGE","DECAY_DATE":null,"MEAN_ANOMALY":"299.8134","TLE_LINE1":"1 50834U 22001AH  22272.46523694  .00000188  00000-0  29943-4 0  9997","GP_ID":"213807550","TLE_LINE2":"2 50834  53.2167  63.0267 0002024  60.3059 299.8134 15.08836844 40468"},{"BSTAR":"-0.00010621000000","MEAN_MOTION":"15.08833253","SITE":"AFETR","PERIOD":"95.438","OBJECT_NAME":"STARLINK-3310","MEAN_MOTION_DDOT":"0.0000000000000","ELEMENT_SET_NO":"999","OBJECT_ID":"2022-001AJ","MEAN_ANOMALY":"313.9213","GP_ID":"213836720","TLE_LINE1":"1 50835U 22001AJ  22272.72283841 -.00001978  00000-0 -10621-3 0  9996","TLE_LINE2":"2 50835  53.2176  61.8568 0001394  46.1894 313.9213 15.08833253 40509","RCS_SIZE":"LARGE","DECAY_DATE":null,"OBJECT_TYPE":"PAYLOAD","LAUNCH_DATE":"2022-01-06","CLASSIFICATION_TYPE":"U","RA_OF_ASC_NODE":"61.8568","EPOCH":"2022-09-29T17:20:53.238624","PERIAPSIS":"538.802","REF_FRAME":"TEME","CENTER_NAME":"EARTH","APOAPSIS":"540.730","EPHEMERIS_TYPE":"0","REV_AT_EPOCH":"4050","MEAN_MOTION_DOT":"-0.00001978","TIME_SYSTEM":"UTC","MEAN_ELEMENT_THEORY":"SGP4","SEMIMAJOR_AXIS":"6917.901","INCLINATION":"53.2176","NORAD_CAT_ID":"50835","COUNTRY_CODE":"US","FILE":"3587117","ECCENTRICITY":"0.00013940","ARG_OF_PERICENTER":"46.1894"},{"EPOCH":"2022-09-29T11:15:14.941152","RA_OF_ASC_NODE":"63.0021","CLASSIFICATION_TYPE":"U","LAUNCH_DATE":"2022-01-06","OBJECT_TYPE":"PAYLOAD","TIME_SYSTEM":"UTC","MEAN_MOTION_DOT":"-0.00000515","REV_AT_EPOCH":"4036","EPHEMERIS_TYPE":"0","APOAPSIS":"540.573","CENTER_NAME":"EARTH","REF_FRAME":"TEME","PERIAPSIS":"538.979","COUNTRY_CODE":"US","NORAD_CAT_ID":"50836","INCLINATION":"53.2161","SEMIMAJOR_AXIS":"6917.911","MEAN_ELEMENT_THEORY":"SGP4","ARG_OF_PERICENTER":"52.0700","ECCENTRICITY":"0.00011520","FILE":"3586894","ELEMENT_SET_NO":"999","MEAN_MOTION_DDOT":"0.0000000000000","OBJECT_NAME":"STARLINK-3330","SITE":"AFETR","PERIOD":"95.438","MEAN_MOTION":"15.08830058","BSTAR":"-0.00001429500000","OBJECT_ID":"2022-001AK","TLE_LINE2":"2 50836  53.2161  63.0021 0001152  52.0700 308.0396 15.08830058 40367","TLE_LINE1":"1 50836U 22001AK  22272.46892293 -.00000515  00000-0 -14295-4 0  9993","GP_ID":"213806548","MEAN_ANOMALY":"308.0396","DECAY_DATE":null,"RCS_SIZE":"LARGE"},{"RCS_SIZE":"LARGE","DECAY_DATE":null,"MEAN_ANOMALY":"304.8525","TLE_LINE2":"2 50837  53.2180  51.4148 0001902  55.2646 304.8525 15.08838078 40668","GP_ID":"213837715","TLE_LINE1":"1 50837U 22001AL  22272.82679836  .00000796  00000-0  68098-4 0  9999","OBJECT_ID":"2022-001AL","BSTAR":"0.00006809800000","PERIOD":"95.438","SITE":"AFETR","MEAN_MOTION":"15.08838078","ELEMENT_SET_NO":"999","OBJECT_NAME":"STARLINK-3318","MEAN_MOTION_DDOT":"0.0000000000000","FILE":"3587117","ECCENTRICITY":"0.00019020","ARG_OF_PERICENTER":"55.2646","MEAN_ELEMENT_THEORY":"SGP4","INCLINATION":"53.2180","SEMIMAJOR_AXIS":"6917.886","NORAD_CAT_ID":"50837","COUNTRY_CODE":"US","REF_FRAME":"TEME","PERIAPSIS":"538.435","APOAPSIS":"541.067","CENTER_NAME":"EARTH","MEAN_MOTION_DOT":"0.00000796","REV_AT_EPOCH":"4066","EPHEMERIS_TYPE":"0","TIME_SYSTEM":"UTC","OBJECT_TYPE":"PAYLOAD","LAUNCH_DATE":"2022-01-06","EPOCH":"2022-09-29T19:50:35.378304","RA_OF_ASC_NODE":"51.4148","CLASSIFICATION_TYPE":"U"},{"MEAN_MOTION_DOT":"-0.00002682","REV_AT_EPOCH":"4052","EPHEMERIS_TYPE":"0","TIME_SYSTEM":"UTC","REF_FRAME":"TEME","PERIAPSIS":"538.604","APOAPSIS":"540.956","CENTER_NAME":"EARTH","CLASSIFICATION_TYPE":"U","EPOCH":"2022-09-29T19:59:52.258272","RA_OF_ASC_NODE":"61.3767","OBJECT_TYPE":"PAYLOAD","LAUNCH_DATE":"2022-01-06","ECCENTRICITY":"0.00017000","ARG_OF_PERICENTER":"49.9167","FILE":"3587117","NORAD_CAT_ID":"50838","COUNTRY_CODE":"US","MEAN_ELEMENT_THEORY":"SGP4","SEMIMAJOR_AXIS":"6917.915","INCLINATION":"53.2178","OBJECT_ID":"2022-001AM","PERIOD":"95.438","SITE":"AFETR","MEAN_MOTION":"15.08828659","ELEMENT_SET_NO":"999","MEAN_MOTION_DDOT":"0.0000000000000","OBJECT_NAME":"STARLINK-3322","BSTAR":"-0.00015049000000","DECAY_DATE":null,"RCS_SIZE":"LARGE","TLE_LINE2":"2 50838  53.2178  61.3767 0001700  49.9167 310.1974 15.08828659 40524","GP_ID":"213836971","TLE_LINE1":"1 50838U 22001AM  22272.83324373 -.00002682  00000-0 -15049-3 0  9999","MEAN_ANOMALY":"310.1974"},{"OBJECT_ID":"2022-001AN","BSTAR":"0.00004649000000","ELEMENT_SET_NO":"999","OBJECT_NAME":"STARLINK-3320","MEAN_MOTION_DDOT":"0.0000000000000","SITE":"AFETR","PERIOD":"95.438","MEAN_MOTION":"15.08835036","RCS_SIZE":"LARGE","DECAY_DATE":null,"MEAN_ANOMALY":"324.6799","TLE_LINE2":"2 50839  53.2195  63.1013 0001315  35.4280 324.6799 15.08835036 40450","GP_ID":"213805799","TLE_LINE1":"1 50839U 22001AN  22272.44683781  .00000452  00000-0  46490-4 0  9994","APOAPSIS":"540.670","CENTER_NAME":"EARTH","REF_FRAME":"TEME","PERIAPSIS":"538.851","TIME_SYSTEM":"UTC","MEAN_MOTION_DOT":"0.00000452","REV_AT_EPOCH":"4045","EPHEMERIS_TYPE":"0","LAUNCH_DATE":"2022-01-06","OBJECT_TYPE":"PAYLOAD","CLASSIFICATION_TYPE":"U","EPOCH":"2022-09-29T10:43:26.786784","RA_OF_ASC_NODE":"63.1013","FILE":"3586894","ARG_OF_PERICENTER":"35.4280","ECCENTRICITY":"0.00013150","INCLINATION":"53.2195","SEMIMAJOR_AXIS":"6917.896","MEAN_ELEMENT_THEORY":"SGP4","COUNTRY_CODE":"US","NORAD_CAT_ID":"50839"},{"SEMIMAJOR_AXIS":"6917.891","INCLINATION":"53.2199","MEAN_ELEMENT_THEORY":"SGP4","COUNTRY_CODE":"US","NORAD_CAT_ID":"50840","FILE":"3586894","ARG_OF_PERICENTER":"61.4907","ECCENTRICITY":"0.00015740","LAUNCH_DATE":"2022-01-06","OBJECT_TYPE":"PAYLOAD","RA_OF_ASC_NODE":"63.1097","EPOCH":"2022-09-29T10:38:08.734560","CLASSIFICATION_TYPE":"U","APOAPSIS":"540.845","CENTER_NAME":"EARTH","REF_FRAME":"TEME","PERIAPSIS":"538.667","TIME_SYSTEM":"UTC","REV_AT_EPOCH":"4045","MEAN_MOTION_DOT":"0.00000644","EPHEMERIS_TYPE":"0","MEAN_ANOMALY":"298.6243","TLE_LINE2":"2 50840  53.2199  63.1097 0001574  61.4907 298.6243 15.08836621 40455","TLE_LINE1":"1 50840U 22001AP  22272.44315665  .00000644  00000-0  58555-4 0  9997","GP_ID":"213806049","RCS_SIZE":"LARGE","DECAY_DATE":null,"BSTAR":"0.00005855500000","ELEMENT_SET_NO":"999","MEAN_MOTION_DDOT":"0.0000000000000","OBJECT_NAME":"STARLINK-3295","PERIOD":"95.438","SITE":"AFETR","MEAN_MOTION":"15.08836621","OBJECT_ID":"2022-001AP"},{"ECCENTRICITY":"0.00017880","ARG_OF_PERICENTER":"35.3821","FILE":"3586894","NORAD_CAT_ID":"50841","COUNTRY_CODE":"US","MEAN_ELEMENT_THEORY":"SGP4","SEMIMAJOR_AXIS":"6917.882","INCLINATION":"53.2185","EPHEMERIS_TYPE":"0","MEAN_MOTION_DOT":"0.00001752","REV_AT_EPOCH":"4046","TIME_SYSTEM":"UTC","PERIAPSIS":"538.510","REF_FRAME":"TEME","CENTER_NAME":"EARTH","APOAPSIS":"540.984","EPOCH":"2022-09-29T10:54:02.037600","CLASSIFICATION_TYPE":"U","RA_OF_ASC_NODE":"63.0729","OBJECT_TYPE":"PAYLOAD","LAUNCH_DATE":"2022-01-06","DECAY_DATE":null,"RCS_SIZE":"LARGE","TLE_LINE1":"1 50841U 22001AQ  22272.45419025  .00001752  00000-0  12818-3 0  9996","GP_ID":"213807300","TLE_LINE2":"2 50841  53.2185  63.0729 0001788  35.3821 324.7289 15.08839437 40464","MEAN_ANOMALY":"324.7289","OBJECT_ID":"2022-001AQ","MEAN_MOTION":"15.08839437","PERIOD":"95.438","SITE":"AFETR","OBJECT_NAME":"STARLINK-3300","MEAN_MOTION_DDOT":"0.0000000000000","ELEMENT_SET_NO":"999","BSTAR":"0.00012818000000"}];
